{
  "type": "FeatureCollection",
  "features": [
    {
      "type": "Feature",
      "properties": {
        "norad_id": 34070,
        "name": "COSMOS 2251 DEB",
        "group": "cosmos-2251-debris",
        "lat": -45.119798364506245,
        "lon": 101.24440549850056,
        "alt_km": 642.6921735827973,
        "timestamp": "2025-12-11T20:41:15.474716+00:00",
        "meta_object_name": "COSMOS 2251 DEB",
        "meta_object_id": "1993-036KH",
        "meta_epoch": "2025-12-11T08:00:44.093088",
        "meta_mean_motion": 14.76951736,
        "meta_eccentricity": 0.00187517,
        "meta_inclination": 74.0005,
        "meta_ra_of_asc_node": 119.0276,
        "meta_arg_of_pericenter": 234.7279,
        "meta_mean_anomaly": 150.6467,
        "meta_ephemeris_type": 0,
        "meta_classification_type": "U",
        "meta_norad_cat_id": 34070,
        "meta_element_set_no": 999,
        "meta_rev_at_epoch": 88590,
        "meta_bstar": 0.0054241903,
        "meta_mean_motion_dot": 0.00038489,
        "meta_mean_motion_ddot": 0,
        "tle_line1": "1 34070U 93036KH  25345.33384367  .00038489  00000+0  54242-2 0  9991",
        "tle_line2": "2 34070  74.0005 119.0276 0018751 234.7279 150.6467 14.76951736885902"
      },
      "geometry": {
        "type": "Point",
        "coordinates": [
          101.24440549850056,
          -45.119798364506245
        ]
      }
    },
    {
      "type": "Feature",
      "properties": {
        "norad_id": 34114,
        "name": "COSMOS 2251 DEB",
        "group": "cosmos-2251-debris",
        "lat": -43.56398423537394,
        "lon": -118.73242360797191,
        "alt_km": 744.7037667065633,
        "timestamp": "2025-12-11T20:41:15.474726+00:00",
        "meta_object_name": "COSMOS 2251 DEB",
        "meta_object_id": "1993-036KK",
        "meta_epoch": "2025-12-11T15:24:41.132736",
        "meta_mean_motion": 14.5635536,
        "meta_eccentricity": 0.0047375,
        "meta_inclination": 74.0587,
        "meta_ra_of_asc_node": 45.9098,
        "meta_arg_of_pericenter": 41.1746,
        "meta_mean_anomaly": 112.4404,
        "meta_ephemeris_type": 0,
        "meta_classification_type": "U",
        "meta_norad_cat_id": 34114,
        "meta_element_set_no": 999,
        "meta_rev_at_epoch": 87785,
        "meta_bstar": 0.0024451648,
        "meta_mean_motion_dot": 0.00010997,
        "meta_mean_motion_ddot": 0,
        "tle_line1": "1 34114U 93036KK  25345.64214274  .00010997  00000+0  24452-2 0  9997",
        "tle_line2": "2 34114  74.0587  45.9098 0047375  41.1746 112.4404 14.56355360877859"
      },
      "geometry": {
        "type": "Point",
        "coordinates": [
          -118.73242360797191,
          -43.56398423537394
        ]
      }
    },
    {
      "type": "Feature",
      "properties": {
        "norad_id": 34115,
        "name": "COSMOS 2251 DEB",
        "group": "cosmos-2251-debris",
        "lat": -73.41251193360299,
        "lon": 138.01784213220836,
        "alt_km": 656.9183712616277,
        "timestamp": "2025-12-11T20:41:15.474736+00:00",
        "meta_object_name": "COSMOS 2251 DEB",
        "meta_object_id": "1993-036KL",
        "meta_epoch": "2025-12-11T00:01:01.473600",
        "meta_mean_motion": 14.79442076,
        "meta_eccentricity": 0.00284359,
        "meta_inclination": 74.006,
        "meta_ra_of_asc_node": 245.3704,
        "meta_arg_of_pericenter": 69.4514,
        "meta_mean_anomaly": 290.9708,
        "meta_ephemeris_type": 0,
        "meta_classification_type": "U",
        "meta_norad_cat_id": 34115,
        "meta_element_set_no": 999,
        "meta_rev_at_epoch": 89386,
        "meta_bstar": 0.0016193637,
        "meta_mean_motion_dot": 0.00012161,
        "meta_mean_motion_ddot": 0,
        "tle_line1": "1 34115U 93036KL  25345.00071150  .00012161  00000+0  16194-2 0  9991",
        "tle_line2": "2 34115  74.0060 245.3704 0028435  69.4514 290.9708 14.79442076893862"
      },
      "geometry": {
        "type": "Point",
        "coordinates": [
          138.01784213220836,
          -73.41251193360299
        ]
      }
    },
    {
      "type": "Feature",
      "properties": {
        "norad_id": 34116,
        "name": "COSMOS 2251 DEB",
        "group": "cosmos-2251-debris",
        "lat": -44.9125925421474,
        "lon": 167.85528614995215,
        "alt_km": 717.1270217430292,
        "timestamp": "2025-12-11T20:41:15.474747+00:00",
        "meta_object_name": "COSMOS 2251 DEB",
        "meta_object_id": "1993-036KM",
        "meta_epoch": "2025-12-11T12:46:36.424992",
        "meta_mean_motion": 14.52964204,
        "meta_eccentricity": 0.00120466,
        "meta_inclination": 74.0402,
        "meta_ra_of_asc_node": 185.0537,
        "meta_arg_of_pericenter": 261.0956,
        "meta_mean_anomaly": 128.2019,
        "meta_ephemeris_type": 0,
        "meta_classification_type": "U",
        "meta_norad_cat_id": 34116,
        "meta_element_set_no": 999,
        "meta_rev_at_epoch": 88469,
        "meta_bstar": 0.0011457287,
        "meta_mean_motion_dot": 4.704e-05,
        "meta_mean_motion_ddot": 0,
        "tle_line1": "1 34116U 93036KM  25345.53236603  .00004704  00000+0  11457-2 0  9997",
        "tle_line2": "2 34116  74.0402 185.0537 0012046 261.0956 128.2019 14.52964204884690"
      },
      "geometry": {
        "type": "Point",
        "coordinates": [
          167.85528614995215,
          -44.9125925421474
        ]
      }
    },
    {
      "type": "Feature",
      "properties": {
        "norad_id": 34117,
        "name": "COSMOS 2251 DEB",
        "group": "cosmos-2251-debris",
        "lat": -1.5697675948122245,
        "lon": 165.90005656749642,
        "alt_km": 780.2328275059917,
        "timestamp": "2025-12-11T20:41:15.474757+00:00",
        "meta_object_name": "COSMOS 2251 DEB",
        "meta_object_id": "1993-036KN",
        "meta_epoch": "2025-12-11T09:50:54.828384",
        "meta_mean_motion": 14.40003425,
        "meta_eccentricity": 0.00544922,
        "meta_inclination": 74.0405,
        "meta_ra_of_asc_node": 346.2847,
        "meta_arg_of_pericenter": 63.0539,
        "meta_mean_anomaly": 297.6167,
        "meta_ephemeris_type": 0,
        "meta_classification_type": "U",
        "meta_norad_cat_id": 34117,
        "meta_element_set_no": 999,
        "meta_rev_at_epoch": 88104,
        "meta_bstar": 0.0010878782,
        "meta_mean_motion_dot": 3.463e-05,
        "meta_mean_motion_ddot": 0,
        "tle_line1": "1 34117U 93036KN  25345.41035681  .00003463  00000+0  10879-2 0  9996",
        "tle_line2": "2 34117  74.0405 346.2847 0054492  63.0539 297.6167 14.40003425881044"
      },
      "geometry": {
        "type": "Point",
        "coordinates": [
          165.90005656749642,
          -1.5697675948122245
        ]
      }
    },
    {
      "type": "Feature",
      "properties": {
        "norad_id": 34118,
        "name": "COSMOS 2251 DEB",
        "group": "cosmos-2251-debris",
        "lat": 71.92298892536145,
        "lon": -47.05217346854522,
        "alt_km": 536.7618263984614,
        "timestamp": "2025-12-11T20:41:15.474767+00:00",
        "meta_object_name": "COSMOS 2251 DEB",
        "meta_object_id": "1993-036KP",
        "meta_epoch": "2025-12-11T11:28:18.422400",
        "meta_mean_motion": 14.93877623,
        "meta_eccentricity": 0.00599013,
        "meta_inclination": 73.9523,
        "meta_ra_of_asc_node": 251.8577,
        "meta_arg_of_pericenter": 82.5666,
        "meta_mean_anomaly": 94.7832,
        "meta_ephemeris_type": 0,
        "meta_classification_type": "U",
        "meta_norad_cat_id": 34118,
        "meta_element_set_no": 999,
        "meta_rev_at_epoch": 89157,
        "meta_bstar": 0.0036735851,
        "meta_mean_motion_dot": 0.00040645,
        "meta_mean_motion_ddot": 0,
        "tle_line1": "1 34118U 93036KP  25345.47799100  .00040645  00000+0  36736-2 0  9999",
        "tle_line2": "2 34118  73.9523 251.8577 0059901  82.5666  94.7832 14.93877623891573"
      },
      "geometry": {
        "type": "Point",
        "coordinates": [
          -47.05217346854522,
          71.92298892536145
        ]
      }
    },
    {
      "type": "Feature",
      "properties": {
        "norad_id": 34120,
        "name": "COSMOS 2251 DEB",
        "group": "cosmos-2251-debris",
        "lat": 65.67497054109356,
        "lon": -102.83207140943334,
        "alt_km": 772.0130896652754,
        "timestamp": "2025-12-11T20:41:15.474777+00:00",
        "meta_object_name": "COSMOS 2251 DEB",
        "meta_object_id": "1993-036KR",
        "meta_epoch": "2025-12-11T15:18:33.220800",
        "meta_mean_motion": 13.98681642,
        "meta_eccentricity": 0.01819158,
        "meta_inclination": 73.9913,
        "meta_ra_of_asc_node": 218.1292,
        "meta_arg_of_pericenter": 46.0583,
        "meta_mean_anomaly": 336.5593,
        "meta_ephemeris_type": 0,
        "meta_classification_type": "U",
        "meta_norad_cat_id": 34120,
        "meta_element_set_no": 999,
        "meta_rev_at_epoch": 85965,
        "meta_bstar": 0.00049063037,
        "meta_mean_motion_dot": 7.89e-06,
        "meta_mean_motion_ddot": 0,
        "tle_line1": "1 34120U 93036KR  25345.63788450  .00000789  00000+0  49063-3 0  9999",
        "tle_line2": "2 34120  73.9913 218.1292 0181915  46.0583 336.5593 13.98681642859655"
      },
      "geometry": {
        "type": "Point",
        "coordinates": [
          -102.83207140943334,
          65.67497054109356
        ]
      }
    }
  ]
}